[{"OBJECT_NAME":"FENGYUN 1C DEB","OBJECT_ID":"1999-025ESD","EPOCH":"2026-03-06T01:46:50.605248","MEAN_MOTION":14.01767295,"ECCENTRICITY":0.03790959,"INCLINATION":98.4387,"RA_OF_ASC_NODE":14.1834,"ARG_OF_PERICENTER":133.5854,"MEAN_ANOMALY":229.7448,"EPHEMERIS_TYPE":0,"CLASSIFICATION_TYPE":"U","NORAD_CAT_ID":38494,"ELEMENT_SET_NO":999,"REV_AT_EPOCH":8321,"BSTAR":0.0019532245,"MEAN_MOTION_DOT":5.546e-5,"MEAN_MOTION_DDOT":0},{"OBJECT_NAME":"FENGYUN 1C DEB","OBJECT_ID":"1999-025ESF","EPOCH":"2026-03-05T20:22:39.453600","MEAN_MOTION":14.10278287,"ECCENTRICITY":0.00786526,"INCLINATION":98.7638,"RA_OF_ASC_NODE":77.4554,"ARG_OF_PERICENTER":130.6296,"MEAN_ANOMALY":230.175,"EPHEMERIS_TYPE":0,"CLASSIFICATION_TYPE":"U","NORAD_CAT_ID":38496,"ELEMENT_SET_NO":999,"REV_AT_EPOCH":82192,"BSTAR":0.00075466767,"MEAN_MOTION_DOT":1.335e-5,"MEAN_MOTION_DDOT":0},{"OBJECT_NAME":"FENGYUN 1C DEB","OBJECT_ID":"1999-025ESH","EPOCH":"2026-03-04T17:47:01.384800","MEAN_MOTION":12.96789029,"ECCENTRICITY":0.0555941,"INCLINATION":99.6969,"RA_OF_ASC_NODE":80.1029,"ARG_OF_PERICENTER":245.5019,"MEAN_ANOMALY":108.716,"EPHEMERIS_TYPE":0,"CLASSIFICATION_TYPE":"U","NORAD_CAT_ID":38498,"ELEMENT_SET_NO":999,"REV_AT_EPOCH":54806,"BSTAR":0.0015324234,"MEAN_MOTION_DOT":8.57e-6,"MEAN_MOTION_DDOT":0},{"OBJECT_NAME":"FENGYUN 1C DEB","OBJECT_ID":"1999-025ESV","EPOCH":"2026-02-25T19:19:19.028640","MEAN_MOTION":14.13546892,"ECCENTRICITY":0.0097186,"INCLINATION":98.6041,"RA_OF_ASC_NODE":68.0164,"ARG_OF_PERICENTER":296.023,"MEAN_ANOMALY":63.0961,"EPHEMERIS_TYPE":0,"CLASSIFICATION_TYPE":"U","NORAD_CAT_ID":38510,"ELEMENT_SET_NO":999,"REV_AT_EPOCH":89730,"BSTAR":0.00060389818,"MEAN_MOTION_DOT":1.147e-5,"MEAN_MOTION_DDOT":0},{"OBJECT_NAME":"FENGYUN 1C DEB","OBJECT_ID":"1999-025ESX","EPOCH":"2026-03-04T02:13:56.548704","MEAN_MOTION":13.74240236,"ECCENTRICITY":0.022611,"INCLINATION":98.3785,"RA_OF_ASC_NODE":300.0203,"ARG_OF_PERICENTER":246.5893,"MEAN_ANOMALY":111.1338,"EPHEMERIS_TYPE":0,"CLASSIFICATION_TYPE":"U","NORAD_CAT_ID":38512,"ELEMENT_SET_NO":999,"REV_AT_EPOCH":60687,"BSTAR":0.0011056786,"MEAN_MOTION_DOT":1.216e-5,"MEAN_MOTION_DDOT":0},{"OBJECT_NAME":"FENGYUN 1C DEB","OBJECT_ID":"1999-025ESZ","EPOCH":"2026-03-06T21:21:49.843872","MEAN_MOTION":14.18522913,"ECCENTRICITY":0.02659636,"INCLINATION":98.0479,"RA_OF_ASC_NODE":92.72,"ARG_OF_PERICENTER":128.2856,"MEAN_ANOMALY":234.257,"EPHEMERIS_TYPE":0,"CLASSIFICATION_TYPE":"U","NORAD_CAT_ID":38514,"ELEMENT_SET_NO":999,"REV_AT_EPOCH":89188,"BSTAR":0.0017106871,"MEAN_MOTION_DOT":4.991e-5,"MEAN_MOTION_DDOT":0},{"OBJECT_NAME":"FENGYUN 1C DEB","OBJECT_ID":"1999-025ETB","EPOCH":"2026-03-03T18:03:34.802496","MEAN_MOTION":14.3413977,"ECCENTRICITY":0.01091649,"INCLINATION":98.4527,"RA_OF_ASC_NODE":49.8115,"ARG_OF_PERICENTER":244.7623,"MEAN_ANOMALY":114.2216,"EPHEMERIS_TYPE":0,"CLASSIFICATION_TYPE":"U","NORAD_CAT_ID":38516,"ELEMENT_SET_NO":999,"REV_AT_EPOCH":86034,"BSTAR":0.00015607988,"MEAN_MOTION_DOT":4.22e-6,"MEAN_MOTION_DDOT":0},{"OBJECT_NAME":"FENGYUN 1C DEB","OBJECT_ID":"1999-025ETE","EPOCH":"2026-03-03T03:46:47.479008","MEAN_MOTION":13.87885134,"ECCENTRICITY":0.01684326,"INCLINATION":99.5415,"RA_OF_ASC_NODE":44.6067,"ARG_OF_PERICENTER":188.1814,"MEAN_ANOMALY":171.6588,"EPHEMERIS_TYPE":0,"CLASSIFICATION_TYPE":"U","NORAD_CAT_ID":38519,"ELEMENT_SET_NO":999,"REV_AT_EPOCH":85853,"BSTAR":0.0014318426,"MEAN_MOTION_DOT":1.858e-5,"MEAN_MOTION_DDOT":0},{"OBJECT_NAME":"FENGYUN 1C DEB","OBJECT_ID":"1999-025ETJ","EPOCH":"2026-03-03T13:00:32.122944","MEAN_MOTION":14.20500102,"ECCENTRICITY":0.0058084,"INCLINATION":99.155,"RA_OF_ASC_NODE":85.5754,"ARG_OF_PERICENTER":124.5795,"MEAN_ANOMALY":27.2141,"EPHEMERIS_TYPE":0,"CLASSIFICATION_TYPE":"U","NORAD_CAT_ID":38717,"ELEMENT_SET_NO":999,"REV_AT_EPOCH":59573,"BSTAR":0.00151,"MEAN_MOTION_DOT":3.252e-5,"MEAN_MOTION_DDOT":0},{"OBJECT_NAME":"FENGYUN 1C DEB","OBJECT_ID":"1999-025ETP","EPOCH":"2026-03-06T03:04:14.957760","MEAN_MOTION":14.61091981,"ECCENTRICITY":0.01437425,"INCLINATION":99.3465,"RA_OF_ASC_NODE":179.0032,"ARG_OF_PERICENTER":202.8787,"MEAN_ANOMALY":156.5964,"EPHEMERIS_TYPE":0,"CLASSIFICATION_TYPE":"U","NORAD_CAT_ID":38722,"ELEMENT_SET_NO":999,"REV_AT_EPOCH":71680,"BSTAR":0.004505002,"MEAN_MOTION_DOT":0.00025662,"MEAN_MOTION_DDOT":0},{"OBJECT_NAME":"FENGYUN 1C DEB","OBJECT_ID":"1999-025ETR","EPOCH":"2026-03-07T11:16:22.916352","MEAN_MOTION":14.16299794,"ECCENTRICITY":0.01234341,"INCLINATION":98.7349,"RA_OF_ASC_NODE":78.732,"ARG_OF_PERICENTER":187.8782,"MEAN_ANOMALY":172.0456,"EPHEMERIS_TYPE":0,"CLASSIFICATION_TYPE":"U","NORAD_CAT_ID":38724,"ELEMENT_SET_NO":999,"REV_AT_EPOCH":57823,"BSTAR":0.0042121004,"MEAN_MOTION_DOT":8.965e-5,"MEAN_MOTION_DDOT":0},{"OBJECT_NAME":"FENGYUN 1C DEB","OBJECT_ID":"1999-025ETS","EPOCH":"2026-03-07T03:21:41.853600","MEAN_MOTION":14.44503454,"ECCENTRICITY":0.00308443,"INCLINATION":98.8735,"RA_OF_ASC_NODE":199.9117,"ARG_OF_PERICENTER":7.6264,"MEAN_ANOMALY":352.5388,"EPHEMERIS_TYPE":0,"CLASSIFICATION_TYPE":"U","NORAD_CAT_ID":38725,"ELEMENT_SET_NO":999,"REV_AT_EPOCH":74570,"BSTAR":0.0022240631,"MEAN_MOTION_DOT":7.686e-5,"MEAN_MOTION_DDOT":0},{"OBJECT_NAME":"FENGYUN 1C DEB","OBJECT_ID":"1999-025ETT","EPOCH":"2026-02-27T08:34:37.714080","MEAN_MOTION":15.24466945,"ECCENTRICITY":0.0016022,"INCLINATION":99.1152,"RA_OF_ASC_NODE":102.2679,"ARG_OF_PERICENTER":224.7673,"MEAN_ANOMALY":135.2267,"EPHEMERIS_TYPE":0,"CLASSIFICATION_TYPE":"U","NORAD_CAT_ID":38726,"ELEMENT_SET_NO":999,"REV_AT_EPOCH":71013,"BSTAR":0.008814,"MEAN_MOTION_DOT":0.00223569,"MEAN_MOTION_DDOT":0},{"OBJECT_NAME":"FENGYUN 1C DEB","OBJECT_ID":"1999-025ETU","EPOCH":"2026-02-23T19:29:00.180096","MEAN_MOTION":14.04578693,"ECCENTRICITY":0.01041085,"INCLINATION":98.6073,"RA_OF_ASC_NODE":53.4034,"ARG_OF_PERICENTER":16.4155,"MEAN_ANOMALY":104.6652,"EPHEMERIS_TYPE":0,"CLASSIFICATION_TYPE":"U","NORAD_CAT_ID":38727,"ELEMENT_SET_NO":999,"REV_AT_EPOCH":72858,"BSTAR":0.0019524764,"MEAN_MOTION_DOT":3.234e-5,"MEAN_MOTION_DDOT":0},{"OBJECT_NAME":"FENGYUN 1C DEB","OBJECT_ID":"1999-025ETV","EPOCH":"2026-03-06T06:18:06.255360","MEAN_MOTION":14.72201198,"ECCENTRICITY":0.00723264,"INCLINATION":99.2648,"RA_OF_ASC_NODE":69.0197,"ARG_OF_PERICENTER":156.2808,"MEAN_ANOMALY":262.1793,"EPHEMERIS_TYPE":0,"CLASSIFICATION_TYPE":"U","NORAD_CAT_ID":38728,"ELEMENT_SET_NO":999,"REV_AT_EPOCH":66839,"BSTAR":0.0010697288,"MEAN_MOTION_DOT":6.968e-5,"MEAN_MOTION_DDOT":0},{"OBJECT_NAME":"FENGYUN 1C DEB","OBJECT_ID":"1999-025EUK","EPOCH":"2026-03-02T05:54:53.035488","MEAN_MOTION":13.30208251,"ECCENTRICITY":0.05009511,"INCLINATION":98.7082,"RA_OF_ASC_NODE":77.1399,"ARG_OF_PERICENTER":58.1712,"MEAN_ANOMALY":306.7183,"EPHEMERIS_TYPE":0,"CLASSIFICATION_TYPE":"U","NORAD_CAT_ID":38795,"ELEMENT_SET_NO":999,"REV_AT_EPOCH":79569,"BSTAR":0.0024425611,"MEAN_MOTION_DOT":2.264e-5,"MEAN_MOTION_DDOT":0}]
